#aV2006  2 12  0  0   .00000000      96 DD+AD WGS84 FIT  NGA
## 1362       .00000000   900.00000000 53778  .0000000000000
+   29     1  2  3  4  5  6  7  8  9 10 11 13 14 15 16 17 18
+         19 20 21 22 23 24 25 26 27 28 29 30  0  0  0  0  0
+          0  0  0  0  0  0  0  0  0  0  0  0  0  0  0  0  0
+          0  0  0  0  0  0  0  0  0  0  0  0  0  0  0  0  0
+          0  0  0  0  0  0  0  0  0  0  0  0  0  0  0  0  0
++         0  0  0  0  0  0  0  0  0  0  0  0  0  0  0  0  0
++         0  0  0  0  0  0  0  0  0  0  0  0  0  0  0  0  0
++         0  0  0  0  0  0  0  0  0  0  0  0  0  0  0  0  0
++         0  0  0  0  0  0  0  0  0  0  0  0  0  0  0  0  0
++         0  0  0  0  0  0  0  0  0  0  0  0  0  0  0  0  0
%c cc cc ccc ccc cccc cccc cccc cccc ccccc ccccc ccccc ccccc
%c cc cc ccc ccc cccc cccc cccc cccc ccccc ccccc ccccc ccccc
%f  0.0000000  0.000000000  0.00000000000  0.000000000000000
%f  0.0000000  0.000000000  0.00000000000  0.000000000000000
%i    0    0    0    0      0      0      0      0         0
%i    0    0    0    0      0      0      0      0         0
/*      NGA, ST. LOUIS,MO.                                  
/*   EPHEMERIS COMPUTED FROM  3 DAYS OF DATA                
/* CCCCCCCCCCCCCCCCCCCCCCCCCCCCCCCCCCCCCCCCCCCCCCCCCCCCCCCCC
/* CCCCCCCCCCCCCCCCCCCCCCCCCCCCCCCCCCCCCCCCCCCCCCCCCCCCCCCCC
*  2006  2 12 14 45   .00000000                                                 
P  1  19563.733106  15810.163900   8794.980097     36.313850                    
V  1 -10542.729511  -3095.076725  29649.561429       .020517                    
P  2 -12773.501419 -18262.874788 -14851.665264    -18.793235                    
V  2    -28.394681 -18457.758630  22978.251267       .014667                    
P  3  23660.879827  11561.382323  -4691.658923     74.230980                    
V  3  -6562.923676   1548.986430 -30021.483421       .028992                    
P  4  -6493.866033 -24916.952109  -5736.047483    147.131341                    
V  4   2606.644360  -7605.080284  30617.163596       .114505                    
P  5 -22198.419495  12382.219597   7209.039321   -577.400997                    
V  5   4831.687471  -8878.873602  29508.210256       .914796                    
P  6 -13442.757473  10668.027407 -20099.105596    317.845638                    
V  6 -23754.763243 -10704.870577  10030.118186       .353252                    
P  7 -24887.158836  -9663.773333    683.910841    493.879002                    
V  7   1580.864791  -3067.990084  31029.878751       .082943                    
P  8     59.411887 -26196.034119  -2913.563887    -56.398829                    
V  8   3035.776123   3343.168967 -31973.976320      -.013453                    
P  9 -14668.676946   3215.469786  21366.878844      7.519598                    
V  9  -4546.787024 -28063.342080   1361.339924       .015211                    
P 10 -17814.522217  -3606.428375 -19560.711071     78.580374                    
V 10  19468.171753 -14923.026576 -14737.914389       .006396                    
P 11  15692.711702  -5218.257134  20713.775108    306.358562                    
V 11   7036.528109  25803.506573   1412.565682       .027568                    
P 13  11315.523222 -10446.018346 -21703.643729     40.907396                    
V 13  24626.666730  11816.653607   7234.816782       .023895                    
P 14   7578.730998  17122.066573  18924.911683    -19.555096                    
V 14 -22165.195657  -8749.076403  16810.030476       .006314                    
P 15  -1477.574856  26098.817997  -3530.224981    564.763674                    
V 15  -3346.380600  -4199.693018 -31511.779718       .059312                    
P 16  12001.748364   9783.307828 -21506.361574     26.141430                    
V 16 -21989.743164  16496.475066  -4661.172154       .018393                    
P 17  -5831.053504 -17266.961307  19326.273287     49.206866                    
V 17  23046.963063   8596.404843  14535.511975       .080333                    
P 18 -16158.985514  18762.893288   9291.025965   -220.336681                    
V 18 -11311.308593   4258.906718 -28849.461170      -.021300                    
P 19  24426.686714   5060.026647   9265.002222    -21.703635                    
V 19   9199.878520   7554.083746 -28658.251945       .009335                    
P 20  22949.662552 -11578.849044   6531.862407    -32.909202                    
V 20  -5038.335162   7292.896159  30267.582247       .009042                    
P 21  -6957.134113  22413.718098 -11888.745264      4.834800                    
V 21  -4301.053571 -15108.824149 -26382.557018       .034067                    
P 22  -4009.564999  18523.208735  18767.453377     68.077271                    
V 22 -20403.700092  11778.060468 -16117.044945       .030770                    
P 23  21417.251153  -2540.962345 -15687.929182    150.742864                    
V 23  17400.816796   9365.903846  22215.077699      -.014418                    
P 24   4123.012159 -24894.991450   8117.067983     84.916637                    
V 24   3381.795303   9859.091962  29623.606173       .030529                    
P 25  10313.143471  23077.538064  -7568.393843   -117.689806                    
V 25   -916.784407  10601.428111  29620.324402       .383416                    
P 26 -25076.351526  -8532.680278   4206.381330    -36.079832                    
V 26  -4573.728685  -3700.099310 -31394.559507      -.085489                    
P 27   4591.448554 -22735.187574 -12011.521006     35.518423                    
V 27   5657.997395  15591.569616 -26423.857235       .015549                    
P 28   6659.577324 -19360.101193  16995.376155     33.435651                    
V 28  18369.303034 -10769.838836 -20122.442232      -.006229                    
P 29 -24804.253311  -9868.194656    792.713810    531.103111                    
V 29     60.778835  -1934.646270 -32106.162739       .122060                    
P 30 -19562.145079  17750.131184  -2347.617439     24.405168                    
V 30  -4204.357988   -993.583511  31282.586628       .025148                    
EOF
